NORAD_CAT_ID,OBJECT_NAME,OBJECT_TYPE,EPOCH,MEAN_MOTION,ECCENTRICITY,INCLINATION,RA_OF_ASC_NODE,ARG_OF_PERICENTER,MEAN_ANOMALY,BSTAR,MEAN_MOTION_DOT,MEAN_MOTION_DDOT,TLE_LINE0,TLE_LINE1,TLE_LINE2,SEMIMAJOR_AXIS,PERIOD,APOGEE,PERIGEE,DECAYED
49417.0,STARLINK-3154,PAYLOAD,2023-04-26 17:13:24,15.08826868,0.0001248,53.2166,243.65,68.7363,291.3762,0.0008167,0.00012729,0.0,0 STARLINK-3154,1 49417U 21104K   23116.71764727  .00012729  00000-0  81670-3 0  9993,2 49417  53.2166 243.6500 0001248  68.7363 291.3762 15.08826868 80558,6917.921,95.438,540.649,538.922,0.0
49417.0,STARLINK-3154,PAYLOAD,2023-04-27 12:18:01,15.08833744,0.0001183,53.2177,240.0825,62.8142,297.2971,0.00053254,8.196e-05,0.0,0 STARLINK-3154,1 49417U 21104K   23117.51251913  .00008196  00000-0  53254-3 0  9990,2 49417  53.2177 240.0825 0001183  62.8142 297.2971 15.08833744 80670,6917.9,95.438,540.583,538.946,0.0
49417.0,STARLINK-3154,PAYLOAD,2023-04-27 18:39:33,15.08847572,7.74e-05,53.2167,238.8876,57.3163,302.7903,0.00067543,0.0001048,0.0,0 STARLINK-3154,1 49417U 21104K   23117.77746744  .00010480  00000-0  67543-3 0  9994,2 49417  53.2167 238.8876 0000774  57.3163 302.7903 15.08847572 81826,6917.857,95.437,540.258,539.187,0.0
49417.0,STARLINK-3154,PAYLOAD,2023-04-28 12:08:49,15.08841098,0.0001592,53.2179,235.6223,23.9725,336.1341,-5.3284e-06,-3.73e-06,0.0,0 STARLINK-3154,1 49417U 21104K   23118.50612832 -.00000373  00000-0 -53284-5 0  9997,2 49417  53.2179 235.6223 0001592  23.9725 336.1341 15.08841098 81938,6917.877,95.437,540.843,538.641,0.0
49417.0,STARLINK-3154,PAYLOAD,2023-04-28 16:54:57,15.08849936,0.0001728,53.216,234.7291,52.8388,307.2762,-8.0644e-05,-1.572e-05,0.0,0 STARLINK-3154,1 49417U 21104K   23118.70483504 -.00001572  00000-0 -80644-4 0  9992,2 49417  53.2160 234.7291 0001728  52.8388 307.2762 15.08849936 81968,6917.85,95.437,540.91,538.52,0.0
49417.0,STARLINK-3154,PAYLOAD,2023-04-28 20:05:43,15.08857259,0.0001594,53.2157,234.1317,55.9963,304.118,-0.00012649,-2.302e-05,0.0,0 STARLINK-3154,1 49417U 21104K   23118.83730890 -.00002302  00000-0 -12649-3 0  9990,2 49417  53.2157 234.1317 0001594  55.9963 304.1180 15.08857259 81980,6917.828,95.436,540.795,538.59,0.0
49417.0,STARLINK-3154,PAYLOAD,2023-04-29 13:34:58,15.08844568,9.52e-05,53.216,230.8583,74.4773,285.6324,-0.00023469,-4.021e-05,0.0,0 STARLINK-3154,1 49417U 21104K   23119.56595011 -.00004021  00000-0 -23469-3 0  9997,2 49417  53.2160 230.8583 0000952  74.4773 285.6324 15.08844568 82099,6917.866,95.437,540.39,539.073,0.0
49417.0,STARLINK-3154,PAYLOAD,2023-04-29 19:56:30,15.08858457,8.63e-05,53.2166,229.6724,62.526,297.582,6.7469e-05,7.87e-06,0.0,0 STARLINK-3154,1 49417U 21104K   23119.83090669  .00000787  00000-0  67469-4 0  9998,2 49417  53.2166 229.6724 0000863  62.5260 297.5820 15.08858457 82138,6917.824,95.436,540.286,539.092,0.0
49417.0,STARLINK-3154,PAYLOAD,2023-04-30 11:50:22,15.0884232,8.6e-05,53.2141,226.7015,63.622,296.4861,-3.5838e-05,-8.58e-06,0.0,0 STARLINK-3154,1 49417U 21104K   23120.49331269 -.00000858  00000-0 -35838-4 0  9992,2 49417  53.2141 226.7015 0000860  63.6220 296.4861 15.08842320 82233,6917.873,95.437,540.333,539.143,0.0
49417.0,STARLINK-3154,PAYLOAD,2023-04-30 18:11:54,15.0885392,5.66e-05,53.2174,225.5072,94.0072,266.0984,0.00018037,2.585e-05,0.0,0 STARLINK-3154,1 49417U 21104K   23120.75826586  .00002585  00000-0  18037-3 0  9990,2 49417  53.2174 225.5072 0000566  94.0072 266.0984 15.08853920 82276,6917.838,95.437,540.094,539.311,0.0
49417.0,STARLINK-3154,PAYLOAD,2023-05-01 13:16:32,15.08839138,9.78e-05,53.2161,221.9422,75.7197,284.3904,1.7773e-05,-5e-08,0.0,0 STARLINK-3154,1 49417U 21104K   23121.55315899 -.00000005  00000-0  17773-4 0  9992,2 49417  53.2161 221.9422 0000978  75.7197 284.3904 15.08839138 82395,6917.883,95.438,540.425,539.071,0.0
49417.0,STARLINK-3154,PAYLOAD,2023-05-01 16:27:19,15.08841717,9.2e-05,53.2162,221.3456,91.7068,268.4029,5.1235e-05,5.28e-06,0.0,0 STARLINK-3154,1 49417U 21104K   23121.68563674  .00000528  00000-0  51235-4 0  9992,2 49417  53.2162 221.3456 0000920  91.7068 268.4029 15.08841717 81306,6917.875,95.437,540.377,539.104,0.0
49417.0,STARLINK-3154,PAYLOAD,2023-05-02 13:07:19,15.08842863,0.0001003,53.2166,217.4826,76.9951,283.1153,0.00032038,4.815e-05,0.0,0 STARLINK-3154,1 49417U 21104K   23122.54675744  .00004815  00000-0  32038-3 0  9992,2 49417  53.2166 217.4826 0001003  76.9951 283.1153 15.08842863 81435,6917.872,95.437,540.431,539.043,0.0
49417.0,STARLINK-3154,PAYLOAD,2023-05-02 16:18:06,15.08839791,0.0001105,53.2161,216.8868,82.9064,277.2054,0.00063298,9.8e-05,0.0,0 STARLINK-3154,1 49417U 21104K   23122.67923897  .00009800  00000-0  63298-3 0  9992,2 49417  53.2161 216.8868 0001105  82.9064 277.2054 15.08839791 82569,6917.881,95.438,540.51,538.982,0.0
49417.0,STARLINK-3154,PAYLOAD,2023-05-03 12:58:06,15.08844087,0.0001042,53.2158,213.0218,82.2852,277.8258,0.00015532,2.185e-05,0.0,0 STARLINK-3154,1 49417U 21104K   23123.54035814  .00002185  00000-0  15532-3 0  9999,2 49417  53.2158 213.0218 0001042  82.2852 277.8258 15.08844087 82691,6917.868,95.437,540.454,539.012,0.0
49417.0,STARLINK-3154,PAYLOAD,2023-05-03 14:33:29,15.08847085,0.0001023,53.2159,212.7245,79.6033,280.5074,0.00021348,3.112e-05,0.0,0 STARLINK-3154,1 49417U 21104K   23123.60659713  .00003112  00000-0  21348-3 0  9999,2 49417  53.2159 212.7245 0001023  79.6033 280.5074 15.08847085 81594,6917.859,95.437,540.431,539.016,0.0
49417.0,STARLINK-3154,PAYLOAD,2023-05-04 04:51:58,15.08835611,0.0001081,53.215,210.0488,85.5346,274.577,-1.3071e-05,-4.96e-06,0.0,0 STARLINK-3154,1 49417U 21104K   23124.20276230 -.00000496  00000-0 -13071-4 0  9994,2 49417  53.2150 210.0488 0001081  85.5346 274.5770 15.08835611 82793,6917.894,95.438,540.507,539.011,0.0
49417.0,STARLINK-3154,PAYLOAD,2023-05-04 11:13:31,15.08835409,0.0001066,53.2153,208.8592,86.4129,273.6985,-3.0847e-05,-7.79e-06,0.0,0 STARLINK-3154,1 49417U 21104K   23124.46772421 -.00000779  00000-0 -30847-4 0  9999,2 49417  53.2153 208.8592 0001066  86.4129 273.6985 15.08835409 81724,6917.894,95.438,540.497,539.022,0.0
49417.0,STARLINK-3154,PAYLOAD,2023-05-04 14:24:17,15.08837758,0.0001063,53.2153,208.2642,89.5638,270.5476,8.0296e-06,-1.6e-06,0.0,0 STARLINK-3154,1 49417U 21104K   23124.60020305 -.00000160  00000-0  80296-5 0  9999,2 49417  53.2153 208.2642 0001063  89.5638 270.5476 15.08837758 81742,6917.887,95.438,540.488,539.017,0.0
49417.0,STARLINK-3154,PAYLOAD,2023-05-05 06:18:08,15.08841167,9.89e-05,53.2161,205.2914,88.8664,271.2442,0.00011125,1.483e-05,0.0,0 STARLINK-3154,1 49417U 21104K   23125.26260276  .00001483  00000-0  11125-3 0  9996,2 49417  53.2161 205.2914 0000989  88.8664 271.2442 15.08841167 82951,6917.877,95.437,540.426,539.058,0.0
49417.0,STARLINK-3154,PAYLOAD,2023-05-05 14:15:04,15.08849073,0.0001055,53.2162,203.8045,87.8376,272.2737,0.00033424,5.037e-05,0.0,0 STARLINK-3154,1 49417U 21104K   23125.59379998  .00005037  00000-0  33424-3 0  9999,2 49417  53.2162 203.8045 0001055  87.8376 272.2737 15.08849073 81899,6917.853,95.437,540.447,538.988,0.0
49417.0,STARLINK-3154,PAYLOAD,2023-05-06 12:30:28,15.08838532,0.0001032,53.215,199.6404,95.0561,265.0549,7.7852e-05,9.51e-06,0.0,0 STARLINK-3154,1 49417U 21104K   23126.52116592  .00000951  00000-0  77852-4 0  9996,2 49417  53.2150 199.6404 0001032  95.0561 265.0549 15.08838532 82035,6917.885,95.438,540.464,539.036,0.0
49417.0,STARLINK-3154,PAYLOAD,2023-05-06 22:02:47,15.08847014,0.0001004,53.2145,197.8558,98.8342,261.2764,0.00024172,3.562e-05,0.0,0 STARLINK-3154,1 49417U 21104K   23126.91860263  .00003562  00000-0  24172-3 0  9997,2 49417  53.2145 197.8558 0001004  98.8342 261.2764 15.08847014 83208,6917.859,95.437,540.419,539.029,0.0
49417.0,STARLINK-3154,PAYLOAD,2023-05-07 12:21:14,15.08860391,0.0001018,53.2142,195.1797,92.4973,267.6135,0.00053584,8.255e-05,0.0,0 STARLINK-3154,1 49417U 21104K   23127.51475628  .00008255  00000-0  53584-3 0  9994,2 49417  53.2142 195.1797 0001018  92.4973 267.6135 15.08860391 82187,6917.818,95.436,540.387,538.979,0.0
49417.0,STARLINK-3154,PAYLOAD,2023-05-07 21:53:33,15.0885012,9.89e-05,53.2149,193.3963,92.4559,267.6547,0.00029887,4.473e-05,0.0,0 STARLINK-3154,1 49417U 21104K   23127.91219792  .00004473  00000-0  29887-3 0  9993,2 49417  53.2149 193.3963 0000989  92.4559 267.6547 15.08850120 82248,6917.849,95.437,540.399,539.03,0.0
49417.0,STARLINK-3154,PAYLOAD,2023-05-08 02:39:43,15.08836246,0.0001168,53.2143,192.5033,93.008,267.1046,-3.3111e-05,-8.15e-06,0.0,0 STARLINK-3154,1 49417U 21104K   23128.11092303 -.00000815  00000-0 -33111-4 0  9997,2 49417  53.2143 192.5033 0001168  93.0080 267.1046 15.08836246 83385,6917.892,95.438,540.565,538.949,0.0
49417.0,STARLINK-3154,PAYLOAD,2023-05-08 10:36:39,15.0883699,0.0001253,53.2143,191.0164,103.4981,256.615,-2.3629e-05,-6.64e-06,0.0,0 STARLINK-3154,1 49417U 21104K   23128.44212308 -.00000664  00000-0 -23629-4 0  9997,2 49417  53.2143 191.0164 0001253 103.4981 256.6150 15.08836990 82323,6917.89,95.438,540.621,538.888,0.0
49417.0,STARLINK-3154,PAYLOAD,2023-05-09 10:27:26,15.08846324,0.0001188,53.2148,186.5557,92.6858,267.427,0.00018993,2.737e-05,0.0,0 STARLINK-3154,1 49417U 21104K   23129.43572211  .00002737  00000-0  18993-3 0  9997,2 49417  53.2148 186.5557 0001188  92.6858 267.4270 15.08846324 82473,6917.861,95.437,540.548,538.904,0.0
49417.0,STARLINK-3154,PAYLOAD,2023-05-10 10:18:13,15.08842144,0.0001287,53.2147,182.0952,99.0794,261.0344,0.00026343,3.907e-05,0.0,0 STARLINK-3154,1 49417U 21104K   23130.42932795  .00003907  00000-0  26343-3 0  9993,2 49417  53.2147 182.0952 0001287  99.0794 261.0344 15.08842144 82627,6917.874,95.437,540.629,538.849,0.0
49417.0,STARLINK-3154,PAYLOAD,2023-05-10 19:50:32,15.08843328,0.0001265,53.2149,180.311,91.1075,269.0062,0.00031782,4.774e-05,0.0,0 STARLINK-3154,1 49417U 21104K   23130.82676820  .00004774  00000-0  31782-3 0  9997,2 49417  53.2149 180.3110 0001265  91.1075 269.0062 15.08843328 82683,6917.87,95.437,540.61,538.86,0.0
